{"fetched_at":"2026-07-24T07:06:49.458Z","source":"https://celestrak.org/NORAD/elements/gp.php?NAME=SENTINEL&FORMAT=JSON","constellation":"sentinel-1","records":[{"OBJECT_NAME":"SENTINEL-1A","OBJECT_ID":"2014-016A","EPOCH":"2026-07-23T17:03:02.611296","CLASSIFICATION_TYPE":"U","MEAN_MOTION":14.59174326,"ECCENTRICITY":0.0001398,"INCLINATION":98.1701,"RA_OF_ASC_NODE":211.7058,"ARG_OF_PERICENTER":88.9672,"MEAN_ANOMALY":271.1688,"EPHEMERIS_TYPE":0,"NORAD_CAT_ID":39634,"ELEMENT_SET_NO":999,"REV_AT_EPOCH":65534,"BSTAR":0.000017216,"MEAN_MOTION_DOT":3.5e-7,"MEAN_MOTION_DDOT":0},{"OBJECT_NAME":"SENTINEL-1B","OBJECT_ID":"2016-025A","EPOCH":"2026-07-23T21:36:47.431008","CLASSIFICATION_TYPE":"U","MEAN_MOTION":14.9930248,"ECCENTRICITY":0.0014405,"INCLINATION":98.0887,"RA_OF_ASC_NODE":267.0695,"ARG_OF_PERICENTER":9.5983,"MEAN_ANOMALY":350.5511,"EPHEMERIS_TYPE":0,"NORAD_CAT_ID":41456,"ELEMENT_SET_NO":999,"REV_AT_EPOCH":54928,"BSTAR":0.00013477,"MEAN_MOTION_DOT":0.00001584,"MEAN_MOTION_DDOT":0},{"OBJECT_NAME":"SENTINEL-1C","OBJECT_ID":"2024-235A","EPOCH":"2026-07-23T19:38:22.155936","CLASSIFICATION_TYPE":"U","MEAN_MOTION":14.59197832,"ECCENTRICITY":0.0001387,"INCLINATION":98.183,"RA_OF_ASC_NODE":211.6072,"ARG_OF_PERICENTER":88.1017,"MEAN_ANOMALY":272.0341,"EPHEMERIS_TYPE":0,"NORAD_CAT_ID":62261,"ELEMENT_SET_NO":999,"REV_AT_EPOCH":8675,"BSTAR":0.000032313,"MEAN_MOTION_DOT":0.00000107,"MEAN_MOTION_DDOT":0},{"OBJECT_NAME":"SENTINEL-1D","OBJECT_ID":"2025-251A","EPOCH":"2026-07-23T10:35:30.397056","CLASSIFICATION_TYPE":"U","MEAN_MOTION":14.59198373,"ECCENTRICITY":0.0001391,"INCLINATION":98.1829,"RA_OF_ASC_NODE":211.2906,"ARG_OF_PERICENTER":93.9921,"MEAN_ANOMALY":266.1438,"EPHEMERIS_TYPE":0,"NORAD_CAT_ID":66315,"ELEMENT_SET_NO":999,"REV_AT_EPOCH":3801,"BSTAR":0.000021686,"MEAN_MOTION_DOT":5.6e-7,"MEAN_MOTION_DDOT":0}]}
